[{"OBJECT_NAME":"STARLINK-36468","OBJECT_ID":"2026-005M","EPOCH":"2026-03-09T12:00:43.062624","MEAN_MOTION":15.27593567,"ECCENTRICITY":0.00017938,"INCLINATION":42.9967,"RA_OF_ASC_NODE":239.3847,"ARG_OF_PERICENTER":290.0417,"MEAN_ANOMALY":70.0242,"EPHEMERIS_TYPE":0,"CLASSIFICATION_TYPE":"U","NORAD_CAT_ID":67415,"ELEMENT_SET_NO":999,"REV_AT_EPOCH":866,"BSTAR":0.0014118548,"MEAN_MOTION_DOT":0.00038811,"MEAN_MOTION_DDOT":0},{"OBJECT_NAME":"DMSP 5D-2 F13 DEB","OBJECT_ID":"1995-015HL","EPOCH":"2026-02-09T02:06:19.247328","MEAN_MOTION":15.12822218,"ECCENTRICITY":0.00117732,"INCLINATION":98.8603,"RA_OF_ASC_NODE":96.8879,"ARG_OF_PERICENTER":223.037,"MEAN_ANOMALY":136.9936,"EPHEMERIS_TYPE":0,"CLASSIFICATION_TYPE":"U","NORAD_CAT_ID":42294,"ELEMENT_SET_NO":999,"REV_AT_EPOCH":55633,"BSTAR":0.010466292,"MEAN_MOTION_DOT":0.00188804,"MEAN_MOTION_DDOT":0}]
